{"type": "FeatureCollection", "features": [{"type": "Feature", "properties": {"km": 5000, "label": "5,000 km"}, "geometry": {"type": "LineString", "coordinates": [[149.13, 9.6852], [150.5636, 9.6648], [151.9958, 9.6035], [153.4253, 9.5015], [154.8507, 9.359], [156.2707, 9.1761], [157.684, 8.9532], [159.0893, 8.6906], [160.4855, 8.3886], [161.8714, 8.0478], [163.2458, 7.6686], [164.6078, 7.2516], [165.9563, 6.7974], [167.2904, 6.3066], [168.6092, 5.7799], [169.9121, 5.218], [171.1982, 4.6216], [172.4668, 3.9915], [173.7175, 3.3284], [174.9497, 2.6331], [176.1629, 1.9064], [177.3567, 1.1493], [178.5308, 0.3623], [179.685, -0.4535], [-179.1811, -1.2973], [-178.0677, -2.1685], [-176.9748, -3.066], [-175.9025, -3.9892], [-174.851, -4.9372], [-173.8203, -5.9091], [-172.8104, -6.9043], [-171.8213, -7.9219], [-170.853, -8.9611], [-169.9053, -10.0213], [-168.9783, -11.1016], [-168.0719, -12.2014], [-167.186, -13.3199], [-166.3206, -14.4564], [-165.4756, -15.6104], [-164.6509, -16.781], [-163.8465, -17.9677], [-163.0624, -19.1698], [-162.2986, -20.3867], [-161.555, -21.6179], [-160.8318, -22.8626], [-160.129, -24.1205], [-159.4468, -25.3908], [-158.7852, -26.673], [-158.1445, -27.9667], [-157.525, -29.2712], [-156.9269, -30.5861], [-156.3508, -31.9108], [-155.797, -33.2449], [-155.2661, -34.5878], [-154.7588, -35.9391], [-154.2759, -37.2983], [-153.8182, -38.6648], [-153.3869, -40.0383], [-152.9832, -41.4181], [-152.6084, -42.8038], [-152.2642, -44.1949], [-151.9526, -45.5909], [-151.6756, -46.9913], [-151.4359, -48.3954], [-151.2363, -49.8026], [-151.0803, -51.2125], [-150.9718, -52.6243], [-150.9155, -54.0372], [-150.9167, -55.4505], [-150.9819, -56.8634], [-151.1186, -58.2748], [-151.3355, -59.6838], [-151.6434, -61.0889], [-152.0548, -62.4888], [-152.585, -63.8818], [-153.2523, -65.2658], [-154.0791, -66.6384], [-155.0924, -67.9967], [-156.3256, -69.337], [-157.8195, -70.6548], [-159.6245, -71.9444], [-161.802, -73.1985], [-164.4264, -74.4078], [-167.5864, -75.5604], [-171.383, -76.6408], [-175.9233, -77.6295], [178.6955, -78.5023], [172.416, -79.2305], [165.2653, -79.7826], [157.4015, -80.1288], [149.13, -80.247], [140.8585, -80.1288], [132.9947, -79.7826], [125.844, -79.2305], [119.5645, -78.5023], [114.1833, -77.6295], [109.643, -76.6408], [105.8464, -75.5604], [102.6864, -74.4078], [100.062, -73.1985], [97.8845, -71.9444], [96.0795, -70.6548], [94.5856, -69.337], [93.3524, -67.9967], [92.3391, -66.6384], [91.5123, -65.2658], [90.845, -63.8818], [90.3148, -62.4888], [89.9034, -61.0889], [89.5955, -59.6838], [89.3786, -58.2748], [89.2419, -56.8634], [89.1767, -55.4505], [89.1755, -54.0372], [89.2318, -52.6243], [89.3403, -51.2125], [89.4963, -49.8026], [89.6959, -48.3954], [89.9356, -46.9913], [90.2126, -45.5909], [90.5242, -44.1949], [90.8684, -42.8038], [91.2432, -41.4181], [91.6469, -40.0383], [92.0782, -38.6648], [92.5359, -37.2983], [93.0188, -35.9391], [93.5261, -34.5878], [94.057, -33.2449], [94.6108, -31.9108], [95.1869, -30.5861], [95.785, -29.2712], [96.4045, -27.9667], [97.0452, -26.673], [97.7068, -25.3908], [98.389, -24.1205], [99.0918, -22.8626], [99.815, -21.6179], [100.5586, -20.3867], [101.3224, -19.1698], [102.1065, -17.9677], [102.9109, -16.781], [103.7356, -15.6104], [104.5806, -14.4564], [105.446, -13.3199], [106.3319, -12.2014], [107.2383, -11.1016], [108.1653, -10.0213], [109.113, -8.9611], [110.0813, -7.9219], [111.0704, -6.9043], [112.0803, -5.9091], [113.111, -4.9372], [114.1625, -3.9892], [115.2348, -3.066], [116.3277, -2.1685], [117.4411, -1.2973], [118.575, -0.4535], [119.7292, 0.3623], [120.9033, 1.1493], [122.0971, 1.9064], [123.3103, 2.6331], [124.5425, 3.3284], [125.7932, 3.9915], [127.0618, 4.6216], [128.3479, 5.218], [129.6508, 5.7799], [130.9696, 6.3066], [132.3037, 6.7974], [133.6522, 7.2516], [135.0142, 7.6686], [136.3886, 8.0478], [137.7745, 8.3886], [139.1707, 8.6906], [140.576, 8.9532], [141.9893, 9.1761], [143.4093, 9.359], [144.8347, 9.5015], [146.2642, 9.6035], [147.6964, 9.6648], [149.13, 9.6852]]}}, {"type": "Feature", "properties": {"km": 10000, "label": "10,000 km"}, "geometry": {"type": "LineString", "coordinates": [[149.13, 54.6513], [152.5841, 54.602], [156.0216, 54.4548], [159.4264, 54.2108], [162.7835, 53.8719], [166.0794, 53.441], [169.3023, 52.9212], [172.4426, 52.3163], [175.4927, 51.6304], [178.4468, 50.8678], [-178.6985, 50.033], [-175.9454, 49.1307], [-173.2941, 48.1651], [-170.7437, 47.1409], [-168.2922, 46.0621], [-165.937, 44.9329], [-163.6744, 43.7571], [-161.5007, 42.5384], [-159.4116, 41.2801], [-157.4027, 39.9854], [-155.4696, 38.6573], [-153.6077, 37.2985], [-151.8126, 35.9115], [-150.0801, 34.4986], [-148.4058, 33.0621], [-146.7857, 31.6038], [-145.2161, 30.1257], [-143.6931, 28.6294], [-142.2132, 27.1165], [-140.7731, 25.5885], [-139.3695, 24.0467], [-137.9994, 22.4923], [-136.66, 20.9266], [-135.3484, 19.3506], [-134.0621, 17.7653], [-132.7985, 16.1717], [-131.5552, 14.5708], [-130.33, 12.9633], [-129.1206, 11.3501], [-127.9249, 9.732], [-126.7408, 8.1098], [-125.5663, 6.4841], [-124.3995, 4.8557], [-123.2383, 3.2252], [-122.0809, 1.5933], [-120.9254, -0.0392], [-119.7699, -1.6717], [-118.6126, -3.3037], [-117.4515, -4.9343], [-116.2848, -6.563], [-115.1105, -8.1889], [-113.9266, -9.8116], [-112.7312, -11.4301], [-111.5221, -13.0437], [-110.2973, -14.6518], [-109.0544, -16.2533], [-107.7912, -17.8476], [-106.5053, -19.4337], [-105.1942, -21.0105], [-103.8552, -22.5772], [-102.4856, -24.1325], [-101.0825, -25.6754], [-99.6428, -27.2046], [-98.1633, -28.7187], [-96.6407, -30.2164], [-95.0713, -31.6959], [-93.4515, -33.1556], [-91.7774, -34.5938], [-90.0448, -36.0083], [-88.2496, -37.3971], [-86.3873, -38.7577], [-84.4536, -40.0878], [-82.4438, -41.3845], [-80.3536, -42.6448], [-78.1783, -43.8657], [-75.9137, -45.0437], [-73.556, -46.1752], [-71.1015, -47.2562], [-68.5474, -48.2828], [-65.8918, -49.2506], [-63.1335, -50.1552], [-60.273, -50.9921], [-57.3121, -51.7568], [-54.2546, -52.4447], [-51.1059, -53.0514], [-47.8738, -53.5728], [-44.568, -54.0051], [-41.2004, -54.345], [-37.7845, -54.5898], [-34.3357, -54.7376], [-30.87, -54.7869], [-27.4043, -54.7376], [-23.9555, -54.5898], [-20.5396, -54.345], [-17.172, -54.0051], [-13.8662, -53.5728], [-10.6341, -53.0514], [-7.4854, -52.4447], [-4.4279, -51.7568], [-1.467, -50.9921], [1.3935, -50.1552], [4.1518, -49.2506], [6.8074, -48.2828], [9.3615, -47.2562], [11.816, -46.1752], [14.1737, -45.0437], [16.4383, -43.8657], [18.6136, -42.6448], [20.7038, -41.3845], [22.7136, -40.0878], [24.6473, -38.7577], [26.5096, -37.3971], [28.3048, -36.0083], [30.0374, -34.5938], [31.7115, -33.1556], [33.3313, -31.6959], [34.9007, -30.2164], [36.4233, -28.7187], [37.9028, -27.2046], [39.3425, -25.6754], [40.7456, -24.1325], [42.1152, -22.5772], [43.4542, -21.0105], [44.7653, -19.4337], [46.0512, -17.8476], [47.3144, -16.2533], [48.5573, -14.6518], [49.7821, -13.0437], [50.9912, -11.4301], [52.1866, -9.8116], [53.3705, -8.1889], [54.5448, -6.563], [55.7115, -4.9343], [56.8726, -3.3037], [58.0299, -1.6717], [59.1854, -0.0392], [60.3409, 1.5933], [61.4983, 3.2252], [62.6595, 4.8557], [63.8263, 6.4841], [65.0008, 8.1098], [66.1849, 9.732], [67.3806, 11.3501], [68.59, 12.9633], [69.8152, 14.5708], [71.0585, 16.1717], [72.3221, 17.7653], [73.6084, 19.3506], [74.92, 20.9266], [76.2594, 22.4923], [77.6295, 24.0467], [79.0331, 25.5885], [80.4732, 27.1165], [81.9531, 28.6294], [83.4761, 30.1257], [85.0457, 31.6038], [86.6658, 33.0621], [88.3401, 34.4986], [90.0726, 35.9115], [91.8677, 37.2985], [93.7296, 38.6573], [95.6627, 39.9854], [97.6716, 41.2801], [99.7607, 42.5384], [101.9344, 43.7571], [104.197, 44.9329], [106.5522, 46.0621], [109.0037, 47.1409], [111.5541, 48.1651], [114.2054, 49.1307], [116.9585, 50.033], [119.8132, 50.8678], [122.7673, 51.6304], [125.8174, 52.3163], [128.9577, 52.9212], [132.1806, 53.441], [135.4765, 53.8719], [138.8336, 54.2108], [142.2384, 54.4548], [145.6759, 54.602], [149.13, 54.6513]]}}, {"type": "Feature", "properties": {"km": 15000, "label": "15,000 km"}, "geometry": {"type": "LineString", "coordinates": [[-30.87, 80.3827], [-39.2748, 80.2626], [-47.254, 79.911], [-54.4913, 79.351], [-60.8272, 78.6136], [-66.2392, 77.7309], [-70.7913, 76.7325], [-74.587, 75.6428], [-77.7381, 74.4817], [-80.3492, 73.2644], [-82.5111, 72.0029], [-84.2996, 70.7066], [-85.777, 69.3826], [-86.9941, 68.0365], [-87.9921, 66.6729], [-88.8043, 65.2953], [-89.4581, 63.9066], [-89.9756, 62.5092], [-90.3753, 61.1052], [-90.6722, 59.6961], [-90.879, 58.2834], [-91.0061, 56.8684], [-91.0625, 55.452], [-91.0555, 54.0354], [-90.9915, 52.6192], [-90.8759, 51.2043], [-90.7132, 49.7914], [-90.5073, 48.3811], [-90.2617, 46.9741], [-89.9792, 45.571], [-89.6623, 44.1722], [-89.3132, 42.7783], [-88.9338, 41.3899], [-88.5256, 40.0074], [-88.0901, 38.6314], [-87.6285, 37.2622], [-87.1418, 35.9005], [-86.6309, 34.5467], [-86.0966, 33.2013], [-85.5395, 31.8647], [-84.9602, 30.5375], [-84.3591, 29.2201], [-83.7366, 27.9132], [-83.0931, 26.6171], [-82.4288, 25.3324], [-81.7439, 24.0597], [-81.0385, 22.7995], [-80.3127, 21.5524], [-79.5667, 20.3189], [-78.8005, 19.0996], [-78.014, 17.8951], [-77.2072, 16.7061], [-76.3802, 15.5331], [-75.5329, 14.3769], [-74.6652, 13.2381], [-73.777, 12.1173], [-72.8683, 11.0152], [-71.939, 9.9326], [-70.989, 8.8703], [-70.0183, 7.8288], [-69.0269, 6.809], [-68.0146, 5.8117], [-66.9814, 4.8376], [-65.9275, 3.8875], [-64.8528, 2.9623], [-63.7573, 2.0627], [-62.6412, 1.1895], [-61.5046, 0.3436], [-60.3478, -0.4741], [-59.1709, -1.2629], [-57.9742, -2.0219], [-56.758, -2.7503], [-55.5228, -3.4473], [-54.2691, -4.1121], [-52.9972, -4.7438], [-51.7079, -5.3418], [-50.4018, -5.9051], [-49.0795, -6.4332], [-47.742, -6.9253], [-46.3899, -7.3807], [-45.0244, -7.7988], [-43.6463, -8.179], [-42.2567, -8.5207], [-40.8568, -8.8235], [-39.4476, -9.0869], [-38.0304, -9.3104], [-36.6065, -9.4938], [-35.1772, -9.6367], [-33.7437, -9.739], [-32.3076, -9.8004], [-30.87, -9.8209], [-29.4324, -9.8004], [-27.9963, -9.739], [-26.5628, -9.6367], [-25.1335, -9.4938], [-23.7096, -9.3104], [-22.2924, -9.0869], [-20.8832, -8.8235], [-19.4833, -8.5207], [-18.0937, -8.179], [-16.7156, -7.7988], [-15.3501, -7.3807], [-13.998, -6.9253], [-12.6605, -6.4332], [-11.3382, -5.9051], [-10.0321, -5.3418], [-8.7428, -4.7438], [-7.4709, -4.1121], [-6.2172, -3.4473], [-4.982, -2.7503], [-3.7658, -2.0219], [-2.5691, -1.2629], [-1.3922, -0.4741], [-0.2354, 0.3436], [0.9012, 1.1895], [2.0173, 2.0627], [3.1128, 2.9623], [4.1875, 3.8875], [5.2414, 4.8376], [6.2746, 5.8117], [7.2869, 6.809], [8.2783, 7.8288], [9.249, 8.8703], [10.199, 9.9326], [11.1283, 11.0152], [12.037, 12.1173], [12.9252, 13.2381], [13.7929, 14.3769], [14.6402, 15.5331], [15.4672, 16.7061], [16.274, 17.8951], [17.0605, 19.0996], [17.8267, 20.3189], [18.5727, 21.5524], [19.2985, 22.7995], [20.0039, 24.0597], [20.6888, 25.3324], [21.3531, 26.6171], [21.9966, 27.9132], [22.6191, 29.2201], [23.2202, 30.5375], [23.7995, 31.8647], [24.3566, 33.2013], [24.8909, 34.5467], [25.4018, 35.9005], [25.8885, 37.2622], [26.3501, 38.6314], [26.7856, 40.0074], [27.1938, 41.3899], [27.5732, 42.7783], [27.9223, 44.1722], [28.2392, 45.571], [28.5217, 46.9741], [28.7673, 48.3811], [28.9732, 49.7914], [29.1359, 51.2043], [29.2515, 52.6192], [29.3155, 54.0354], [29.3225, 55.452], [29.2661, 56.8684], [29.139, 58.2834], [28.9322, 59.6961], [28.6353, 61.1052], [28.2356, 62.5092], [27.7181, 63.9066], [27.0643, 65.2953], [26.2521, 66.6729], [25.2541, 68.0365], [24.037, 69.3826], [22.5596, 70.7066], [20.7711, 72.0029], [18.6092, 73.2644], [15.9981, 74.4817], [12.847, 75.6428], [9.0513, 76.7325], [4.4992, 77.7309], [-0.9128, 78.6136], [-7.2487, 79.351], [-14.486, 79.911], [-22.4652, 80.2626], [-30.87, 80.3827]]}}]}